{
  "type": "FeatureCollection",
  "features": [
    {
      "type": "Feature",
      "properties": {
        "norad_id": 43602,
        "name": "BEIDOU-3 M12 (C26)",
        "group": "beidou",
        "lat": 8.04689847906008,
        "lon": 1.3208193234475953,
        "alt_km": 21543.794787694293,
        "timestamp": "2025-12-18T04:58:34.841614+00:00",
        "meta_object_name": "BEIDOU-3 M12 (C26)",
        "meta_object_id": "2018-067A",
        "meta_epoch": "2025-12-15T19:20:53.031840",
        "meta_mean_motion": 1.86227731,
        "meta_eccentricity": 0.00092007,
        "meta_inclination": 54.1833,
        "meta_ra_of_asc_node": 187.259,
        "meta_arg_of_pericenter": 40.7418,
        "meta_mean_anomaly": 319.394,
        "meta_ephemeris_type": 0,
        "meta_classification_type": "U",
        "meta_norad_cat_id": 43602,
        "meta_element_set_no": 999,
        "meta_rev_at_epoch": 4970,
        "meta_bstar": 0,
        "meta_mean_motion_dot": 1.15e-06,
        "meta_mean_motion_ddot": 0,
        "tle_line1": "1 43602U 18067A   25349.80616935  .00000115  00000+0  00000+0 0  9993",
        "tle_line2": "2 43602  54.1833 187.2590 0009200  40.7418 319.3940  1.86227731 49704"
      },
      "geometry": {
        "type": "Point",
        "coordinates": [
          1.3208193234475953,
          8.04689847906008
        ]
      }
    },
    {
      "type": "Feature",
      "properties": {
        "norad_id": 43603,
        "name": "BEIDOU-3 M11 (C25)",
        "group": "beidou",
        "lat": 52.90635318031119,
        "lon": -99.97992670848099,
        "alt_km": 21510.802819173223,
        "timestamp": "2025-12-18T04:58:34.841625+00:00",
        "meta_object_name": "BEIDOU-3 M11 (C25)",
        "meta_object_id": "2018-067B",
        "meta_epoch": "2025-12-17T00:21:01.872864",
        "meta_mean_motion": 1.86227285,
        "meta_eccentricity": 0.00055921,
        "meta_inclination": 54.1804,
        "meta_ra_of_asc_node": 187.182,
        "meta_arg_of_pericenter": 36.5835,
        "meta_mean_anomaly": 323.5212,
        "meta_ephemeris_type": 0,
        "meta_classification_type": "U",
        "meta_norad_cat_id": 43603,
        "meta_element_set_no": 999,
        "meta_rev_at_epoch": 4975,
        "meta_bstar": 0,
        "meta_mean_motion_dot": 1.14e-06,
        "meta_mean_motion_ddot": 0,
        "tle_line1": "1 43603U 18067B   25351.01460501  .00000114  00000+0  00000+0 0  9995",
        "tle_line2": "2 43603  54.1804 187.1820 0005592  36.5835 323.5212  1.86227285 49752"
      },
      "geometry": {
        "type": "Point",
        "coordinates": [
          -99.97992670848099,
          52.90635318031119
        ]
      }
    },
    {
      "type": "Feature",
      "properties": {
        "norad_id": 43622,
        "name": "BEIDOU-3 M13 (C32)",
        "group": "beidou",
        "lat": 52.098450456609775,
        "lon": -169.62019041421286,
        "alt_km": 21538.438861402756,
        "timestamp": "2025-12-18T04:58:34.841637+00:00",
        "meta_object_name": "BEIDOU-3 M13 (C32)",
        "meta_object_id": "2018-072A",
        "meta_epoch": "2025-12-16T10:25:06.248640",
        "meta_mean_motion": 1.86231042,
        "meta_eccentricity": 0.00060076,
        "meta_inclination": 56.4627,
        "meta_ra_of_asc_node": 68.6976,
        "meta_arg_of_pericenter": 299.0037,
        "meta_mean_anomaly": 60.9582,
        "meta_ephemeris_type": 0,
        "meta_classification_type": "U",
        "meta_norad_cat_id": 43622,
        "meta_element_set_no": 999,
        "meta_rev_at_epoch": 4925,
        "meta_bstar": 0,
        "meta_mean_motion_dot": -7.9e-07,
        "meta_mean_motion_ddot": 0,
        "tle_line1": "1 43622U 18072A   25350.43410010 -.00000079  00000+0  00000+0 0  9998",
        "tle_line2": "2 43622  56.4627  68.6976 0006007 299.0037  60.9582  1.86231042 49251"
      },
      "geometry": {
        "type": "Point",
        "coordinates": [
          -169.62019041421286,
          52.098450456609775
        ]
      }
    },
    {
      "type": "Feature",
      "properties": {
        "norad_id": 43623,
        "name": "BEIDOU-3 M14 (C33)",
        "group": "beidou",
        "lat": -15.802763754001795,
        "lon": -100.55276174783855,
        "alt_km": 21536.778850163362,
        "timestamp": "2025-12-18T04:58:34.841648+00:00",
        "meta_object_name": "BEIDOU-3 M14 (C33)",
        "meta_object_id": "2018-072B",
        "meta_epoch": "2025-12-17T08:57:48.957984",
        "meta_mean_motion": 1.86231002,
        "meta_eccentricity": 0.00033285,
        "meta_inclination": 56.4654,
        "meta_ra_of_asc_node": 68.6605,
        "meta_arg_of_pericenter": 332.8139,
        "meta_mean_anomaly": 27.1942,
        "meta_ephemeris_type": 0,
        "meta_classification_type": "U",
        "meta_norad_cat_id": 43623,
        "meta_element_set_no": 999,
        "meta_rev_at_epoch": 4926,
        "meta_bstar": 0,
        "meta_mean_motion_dot": -7.3e-07,
        "meta_mean_motion_ddot": 0,
        "tle_line1": "1 43623U 18072B   25351.37348331 -.00000073  00000+0  00000+0 0  9993",
        "tle_line2": "2 43623  56.4654  68.6605 0003328 332.8139  27.1942  1.86231002 49265"
      },
      "geometry": {
        "type": "Point",
        "coordinates": [
          -100.55276174783855,
          -15.802763754001795
        ]
      }
    },
    {
      "type": "Feature",
      "properties": {
        "norad_id": 43647,
        "name": "BEIDOU-3 M16 (C35)",
        "group": "beidou",
        "lat": 54.12014436127935,
        "lon": 42.173878026613615,
        "alt_km": 21515.94172420738,
        "timestamp": "2025-12-18T04:58:34.841659+00:00",
        "meta_object_name": "BEIDOU-3 M16 (C35)",
        "meta_object_id": "2018-078A",
        "meta_epoch": "2025-12-16T10:58:34.332384",
        "meta_mean_motion": 1.86232417,
        "meta_eccentricity": 0.00072794,
        "meta_inclination": 54.2586,
        "meta_ra_of_asc_node": 306.3912,
        "meta_arg_of_pericenter": 19.6101,
        "meta_mean_anomaly": 340.4043,
        "meta_ephemeris_type": 0,
        "meta_classification_type": "U",
        "meta_norad_cat_id": 43647,
        "meta_element_set_no": 999,
        "meta_rev_at_epoch": 4875,
        "meta_bstar": 0,
        "meta_mean_motion_dot": -9.5e-07,
        "meta_mean_motion_ddot": 0,
        "tle_line1": "1 43647U 18078A   25350.45734181 -.00000095  00000+0  00000+0 0  9999",
        "tle_line2": "2 43647  54.2586 306.3912 0007279  19.6101 340.4043  1.86232417 48759"
      },
      "geometry": {
        "type": "Point",
        "coordinates": [
          42.173878026613615,
          54.12014436127935
        ]
      }
    },
    {
      "type": "Feature",
      "properties": {
        "norad_id": 43648,
        "name": "BEIDOU-3 M15 (C34)",
        "group": "beidou",
        "lat": 5.405920727822695,
        "lon": -49.788745291500476,
        "alt_km": 21516.82276965425,
        "timestamp": "2025-12-18T04:58:34.841670+00:00",
        "meta_object_name": "BEIDOU-3 M15 (C34)",
        "meta_object_id": "2018-078B",
        "meta_epoch": "2025-12-17T15:51:04.131072",
        "meta_mean_motion": 1.86232271,
        "meta_eccentricity": 0.00039327,
        "meta_inclination": 54.253,
        "meta_ra_of_asc_node": 306.3494,
        "meta_arg_of_pericenter": 20.2564,
        "meta_mean_anomaly": 339.7463,
        "meta_ephemeris_type": 0,
        "meta_classification_type": "U",
        "meta_norad_cat_id": 43648,
        "meta_element_set_no": 999,
        "meta_rev_at_epoch": 4879,
        "meta_bstar": 0,
        "meta_mean_motion_dot": -8.8e-07,
        "meta_mean_motion_ddot": 0,
        "tle_line1": "1 43648U 18078B   25351.66046448 -.00000088  00000+0  00000+0 0  9998",
        "tle_line2": "2 43648  54.2530 306.3494 0003932  20.2564 339.7463  1.86232271 48796"
      },
      "geometry": {
        "type": "Point",
        "coordinates": [
          -49.788745291500476,
          5.405920727822695
        ]
      }
    },
    {
      "type": "Feature",
      "properties": {
        "norad_id": 43683,
        "name": "BEIDOU-3 G1 (C59)",
        "group": "beidou",
        "lat": -0.8719206742179222,
        "lon": -58.25601022317891,
        "alt_km": 35792.87244437608,
        "timestamp": "2025-12-18T04:58:34.841682+00:00",
        "meta_object_name": "BEIDOU-3 G1 (C59)",
        "meta_object_id": "2018-085A",
        "meta_epoch": "2025-12-17T20:50:22.386624",
        "meta_mean_motion": 1.00269423,
        "meta_eccentricity": 0.00016353,
        "meta_inclination": 2.6203,
        "meta_ra_of_asc_node": 102.8168,
        "meta_arg_of_pericenter": 48.69,
        "meta_mean_anomaly": 27.8697,
        "meta_ephemeris_type": 0,
        "meta_classification_type": "U",
        "meta_norad_cat_id": 43683,
        "meta_element_set_no": 999,
        "meta_rev_at_epoch": 2624,
        "meta_bstar": 0,
        "meta_mean_motion_dot": -2.54e-06,
        "meta_mean_motion_ddot": 0,
        "tle_line1": "1 43683U 18085A   25351.86831466 -.00000254  00000+0  00000+0 0  9994",
        "tle_line2": "2 43683   2.6203 102.8168 0001635  48.6900  27.8697  1.00269423 26247"
      },
      "geometry": {
        "type": "Point",
        "coordinates": [
          -58.25601022317891,
          -0.8719206742179222
        ]
      }
    }
  ]
}